$$SOE
 2018-May-01 14:28:00 *s  250.1496  -0.2586
 2018-May-02 04:43:00  r  112.0467  -0.1869
 2018-May-02 09:55:00  t  179.6001  33.3820
 2018-May-02 15:07:00 *s  246.7584  -0.3049
 2018-May-03 05:40:00  r  114.9342  -0.1105
 2018-May-03 10:44:00  t  179.7255  31.4479
 2018-May-03 15:49:00 *s  244.4636  -0.2827
 2018-May-04 06:33:00  r  116.4475  -0.1319
 2018-May-04 11:34:00 At  180.0712  30.4911
 2018-May-04 16:35:00 *s  243.4962  -0.3092
 2018-May-05 07:22:00  r  116.6383  -0.1528
 2018-May-05 12:23:00 Nt  180.2166  30.5314
 2018-May-05 17:24:00 *s  243.7709  -0.2688
 2018-May-06 08:07:00  r  115.5822  -0.1298
 2018-May-06 13:12:00 *t  180.5354  31.5429
 2018-May-06 18:16:00 *s  245.3219  -0.2299
 2018-May-07 08:48:00  r  113.3529  -0.0804
 2018-May-07 13:59:00 *t  180.5532  33.4664
 2018-May-07 19:11:00 *s  248.1424  -0.2808
 2018-May-08 09:25:00  r  110.0069  -0.0807
 2018-May-08 14:46:00 *t  180.8230  36.2167
 2018-May-08 20:07:00 *s  251.8725  -0.2092
 2018-May-09 09:59:00  r  105.7293  -0.1021
 2018-May-09 15:32:00 *t  181.0065  39.6935
 2018-May-09 21:05:00 *s  256.5523  -0.2042
 2018-May-10 10:31:00  r  100.6899  -0.1357
 2018-May-10 16:17:00 *t  180.9387  43.7800
 2018-May-10 22:05:00 *s  262.0157  -0.2720
 2018-May-11 11:02:00  r   95.0559  -0.1846
 2018-May-11 17:03:00 *t  181.0582  48.3350
 2018-May-11 23:06:00 *s  267.8858  -0.2224
 2018-May-12 11:34:00 Ar   89.1554  -0.1034
 2018-May-12 17:50:00 *t  181.1191  53.1811
 2018-May-13 00:10:00 *s  274.1835  -0.3085
 2018-May-13 12:07:00 Nr   83.0537  -0.0816
 2018-May-13 18:39:00 *t  181.1910  58.0868
 2018-May-14 01:16:00 *s  280.4164  -0.3296
 2018-May-14 12:42:00 Cr   77.0159  -0.1684
 2018-May-14 19:30:00 *t  180.8904  62.7558
 2018-May-15 02:24:00 *s  286.2139  -0.3027
 2018-May-15 13:22:00 *r   71.6693  -0.1214
 2018-May-15 20:25:00 *t  180.9645  66.8295
 2018-May-16 03:34:00 Cs  291.2304  -0.3587
 2018-May-16 14:07:00 *r   67.2784  -0.1578
 2018-May-16 21:23:00 *t  180.9439  69.9242
 2018-May-17 04:43:00 As  294.7825  -0.3321
 2018-May-17 14:59:00 *r   64.4715  -0.1316
 2018-May-17 22:23:00 *t  180.6587  71.7030
 2018-May-18 05:49:00  s  296.5377  -0.3261
 2018-May-18 15:57:00 *r   63.4643  -0.1930
 2018-May-18 23:24:00 *t  180.4948  71.9647
 2018-May-19 06:49:00  s  296.2270  -0.2773
 2018-May-19 17:01:00 *r   64.5683  -0.1630
 2018-May-20 00:23:00 *t  179.6527  70.7080
 2018-May-20 07:42:00  s  294.0122  -0.2416
 2018-May-20 18:08:00 *r   67.5029  -0.1422
 2018-May-21 01:21:00 *t  179.8857  68.1130
 2018-May-21 08:29:00  s  290.3693  -0.3575
 2018-May-21 19:16:00 *r   71.9353  -0.0799
 2018-May-22 02:15:00 *t  179.5994  64.4788
 2018-May-22 09:09:00  s  285.4232  -0.3144
 2018-May-22 20:22:00 *r   77.2025  -0.1833
 2018-May-23 03:06:00 *t  179.4108  60.1343
 2018-May-23 09:45:00  s  279.8129  -0.3317
 2018-May-23 21:27:00 *r   83.1389  -0.2022
 2018-May-24 03:54:00 Nt  179.0435  55.3915
 2018-May-24 10:18:00  s  273.8198  -0.3271
 2018-May-24 22:31:00 *r   89.3914  -0.1290
 2018-May-25 04:42:00 At  179.4023  50.5251
 2018-May-25 10:49:00  s  267.6859  -0.2367
 2018-May-25 23:33:00 *r   95.4617  -0.1653
 2018-May-26 05:28:00  t  179.2929  45.7789
 2018-May-26 11:21:00 As  261.9301  -0.3401
 2018-May-27 00:34:00 *r  101.1899  -0.2026
 2018-May-27 06:14:00  t  179.2401  41.3678
 2018-May-27 11:53:00 Ns  256.4767  -0.3005
 2018-May-28 01:35:00 *r  106.4661  -0.1036
 2018-May-28 07:01:00  t  179.3635  37.4870
 2018-May-28 12:27:00 Cs  251.6992  -0.2746
 2018-May-29 02:34:00 *r  110.7884  -0.1312
 2018-May-29 07:49:00  t  179.5441  34.3105
 2018-May-29 13:04:00 *s  247.8341  -0.2782
 2018-May-30 03:31:00 Cr  114.0384  -0.1843
 2018-May-30 08:38:00  t  179.7725  31.9824
 2018-May-30 13:44:00 *s  244.9804  -0.2124
 2018-May-31 04:26:00 Nr  116.1801  -0.1340
 2018-May-31 09:27:00  t  179.8554  30.6056
 2018-May-31 14:29:00 *s  243.5400  -0.3145
 2018-Jun-01 05:17:00  r  116.9485  -0.1343
 2018-Jun-01 10:17:00  t  180.1916  30.2305
 2018-Jun-01 15:17:00 *s  243.3104  -0.3123
 2018-Jun-02 06:04:00  r  116.4285  -0.0953
 2018-Jun-02 11:06:00 At  180.3980  30.8530
 2018-Jun-02 16:08:00 *s  244.3600  -0.2782
 2018-Jun-03 06:46:00  r  114.5699  -0.1363
 2018-Jun-03 11:54:00 Nt  180.5929  32.4197
 2018-Jun-03 17:02:00 *s  246.7128  -0.3177
 2018-Jun-04 07:24:00  r  111.6103  -0.1640
 2018-Jun-04 12:41:00 *t  180.8352  34.8421
 2018-Jun-04 17:57:00 *s  250.0334  -0.2478
 2018-Jun-05 07:59:00  r  107.7602  -0.1319
 2018-Jun-05 13:26:00 *t  180.8061  38.0129
 2018-Jun-05 18:54:00 *s  254.3793  -0.2851
 2018-Jun-06 08:31:00  r  103.0536  -0.1757
 2018-Jun-06 14:11:00 *t  180.9821  41.8129
 2018-Jun-06 19:52:00 *s  259.4489  -0.3040
 2018-Jun-07 09:02:00  r   97.8007  -0.1448
 2018-Jun-07 14:56:00 *t  181.2036  46.1152
 2018-Jun-07 20:51:00 *s  265.0389  -0.2703
 2018-Jun-08 09:33:00  r   92.1544  -0.0500
 2018-Jun-08 15:41:00 *t  181.1861  50.7764
 2018-Jun-08 21:52:00 *s  271.0463  -0.2667
 2018-Jun-09 10:04:00  r   86.1294  -0.0794
 2018-Jun-09 16:28:00 *t  181.3258  55.6172
 2018-Jun-09 22:56:00 *s  277.3129  -0.3632
 2018-Jun-10 10:37:00  r   80.0673  -0.1237
 2018-Jun-10 17:17:00 *t  181.2218  60.4051
 2018-Jun-11 00:02:00 *s  283.3234  -0.3366
 2018-Jun-11 11:14:00 Ar   74.3659  -0.1037
 2018-Jun-11 18:09:00 *t  180.8555  64.8334
 2018-Jun-12 01:10:00 *s  288.6913  -0.2213
 2018-Jun-12 11:56:00 Nr   69.3608  -0.1182
 2018-Jun-12 19:06:00 *t  181.0930  68.5232
 2018-Jun-13 02:21:00 *s  293.2239  -0.3314
 2018-Jun-13 12:45:00 *r   65.6397  -0.0961
 2018-Jun-13 20:06:00 *t  180.9433  71.0691
 2018-Jun-14 03:30:00 Cs  295.9770  -0.2875
 2018-Jun-14 13:41:00 *r   63.5931  -0.1565
 2018-Jun-14 21:08:00 *t  180.4820  72.1331
 2018-Jun-15 04:35:00 Ns  296.7059  -0.2546
 2018-Jun-15 14:44:00 *r   63.6422  -0.2152
 2018-Jun-15 22:10:00 *t  179.7956  71.5607
 2018-Jun-16 05:34:00  s  295.3989  -0.3157
 2018-Jun-16 15:53:00 *r   65.9675  -0.1029
 2018-Jun-16 23:11:00 *t  179.7741  69.4428
 2018-Jun-17 06:25:00  s  292.1623  -0.3314
 2018-Jun-17 17:03:00 *r   69.9336  -0.0982
 2018-Jun-18 00:08:00 *t  179.3483  66.0723
 2018-Jun-18 07:09:00  s  287.5268  -0.3576
 2018-Jun-18 18:12:00 *r   75.0999  -0.1352
 2018-Jun-19 01:02:00 *t  179.3885  61.8302
 2018-Jun-19 07:47:00  s  281.9308  -0.3169
 2018-Jun-19 19:19:00 *r   81.0016  -0.1665
 2018-Jun-20 01:52:00 *t  179.1169  57.0918
 2018-Jun-20 08:21:00  s  275.8597  -0.2551
 2018-Jun-20 20:24:00 *r   87.2548  -0.1466
 2018-Jun-21 02:40:00 *t  179.1082  52.1762
 2018-Jun-21 08:53:00  s  269.7219  -0.2391
 2018-Jun-21 21:27:00 *r   93.4799  -0.1224
 2018-Jun-22 03:27:00 *t  179.3043  47.3430
 2018-Jun-22 09:24:00  s  263.7316  -0.2080
 2018-Jun-22 22:28:00 *r   99.3372  -0.1693
 2018-Jun-23 04:13:00 Nt  179.3560  42.8056
 2018-Jun-23 09:56:00  s  258.2288  -0.2820
 2018-Jun-23 23:28:00 *r  104.6939  -0.1884
 2018-Jun-24 04:59:00 At  179.3758  38.7466
 2018-Jun-24 10:29:00  s  253.2561  -0.2850
 2018-Jun-25 00:27:00 *r  109.3254  -0.1888
 2018-Jun-25 05:46:00  t  179.5085  35.3283
 2018-Jun-25 11:04:00 As  249.0148  -0.2213
 2018-Jun-26 01:25:00 *r  113.0765  -0.1220
 2018-Jun-26 06:34:00  t  179.6732  32.6945
 2018-Jun-26 11:43:00 Ns  245.8746  -0.2647
 2018-Jun-27 02:20:00 *r  115.5672  -0.1719
 2018-Jun-27 07:23:00  t  179.8915  30.9623
 2018-Jun-27 12:26:00 Cs  243.9274  -0.3306
 2018-Jun-28 03:13:00 *r  116.9499  -0.0656
 2018-Jun-28 08:12:00  t  179.9997  30.2088
 2018-Jun-28 13:12:00 *s  243.1252  -0.2612
 2018-Jun-29 04:01:00 Cr  116.8378  -0.1102
 2018-Jun-29 09:02:00  t  180.4140  30.4584
 2018-Jun-29 14:02:00 *s  243.7094  -0.2490
 2018-Jun-30 04:45:00 Ar  115.4842  -0.1037
 2018-Jun-30 09:50:00  t  180.4943  31.6817
 2018-Jun-30 14:55:00 *s  245.5889  -0.2577
 2018-Jul-01 05:25:00 Ar  112.9983  -0.0527
 2018-Jul-01 10:37:00  t  180.6097  33.7995
 2018-Jul-01 15:50:00 *s  248.6159  -0.2720
 2018-Jul-02 06:00:00  r  109.3246  -0.1784
 2018-Jul-02 11:23:00 At  180.8011  36.7005
 2018-Jul-02 16:46:00 *s  252.5757  -0.2538
 2018-Jul-03 06:33:00  r  104.9769  -0.1561
 2018-Jul-03 12:08:00 Nt  181.0279  40.2565
 2018-Jul-03 17:43:00 *s  257.3409  -0.2626
 2018-Jul-04 07:04:00  r   99.9938  -0.1241
 2018-Jul-04 12:52:00 *t  181.1473  44.3327
 2018-Jul-04 18:41:00 *s  262.7290  -0.3009
 2018-Jul-05 07:34:00  r   94.5412  -0.0879
 2018-Jul-05 13:36:00 *t  181.2542  48.7883
 2018-Jul-05 19:40:00 *s  268.5089  -0.3163
 2018-Jul-06 08:04:00  r   88.7746  -0.0658
 2018-Jul-06 14:20:00 *t  180.9977  53.4692
 2018-Jul-06 20:40:00 *s  274.4030  -0.2197
 2018-Jul-07 08:35:00  r   82.8545  -0.0934
 2018-Jul-07 15:07:00 *t  181.1882  58.1892
 2018-Jul-07 21:43:00 *s  280.3916  -0.2285
 2018-Jul-08 09:09:00  r   77.1154  -0.0750
 2018-Jul-08 15:56:00 *t  180.9636  62.7132
 2018-Jul-08 22:49:00 *s  286.1079  -0.2814
 2018-Jul-09 09:47:00  r   71.7987  -0.1049
 2018-Jul-09 16:49:00 *t  180.8260  66.7350
 2018-Jul-09 23:57:00 *s  291.0233  -0.2687
 2018-Jul-10 10:31:00  r   67.3801  -0.1414
 2018-Jul-10 17:46:00 *t  180.5429  69.8825
 2018-Jul-11 01:06:00 *s  294.6748  -0.2488
 2018-Jul-11 11:23:00 Ar   64.4502  -0.1174
 2018-Jul-11 18:47:00 *t  180.3959  71.7641
 2018-Jul-12 02:14:00 *s  296.6216  -0.3050
 2018-Jul-12 12:23:00 Cr   63.4123  -0.1179
 2018-Jul-12 19:50:00 *t  180.0595  72.0742
 2018-Jul-13 03:17:00 *s  296.3803  -0.3117
 2018-Jul-13 13:30:00 *r   64.5481  -0.1231
 2018-Jul-13 20:53:00 *t  179.7610  70.7154
 2018-Jul-14 04:13:00 Ns  293.9939  -0.3040
 2018-Jul-14 14:41:00 *r   67.7154  -0.1604
 2018-Jul-14 21:54:00 *t  179.6385  67.8507
 2018-Jul-15 05:02:00 As  289.9008  -0.3620
 2018-Jul-15 15:53:00 *r   72.5121  -0.1899
 2018-Jul-15 22:51:00 *t  179.2711  63.8414
 2018-Jul-16 05:44:00  s  284.5091  -0.3472
 2018-Jul-16 17:04:00 *r   78.4212  -0.1451
 2018-Jul-16 23:45:00 *t  179.3452  59.1191
 2018-Jul-17 06:21:00  s  278.4226  -0.3220
 2018-Jul-17 18:12:00 *r   84.7639  -0.1589
 2018-Jul-18 00:35:00 *t  179.0819  54.0874
 2018-Jul-18 06:55:00  s  272.1384  -0.3356
 2018-Jul-18 19:18:00 *r   91.2754  -0.0629
